[{"OBJECT_NAME":"STARLINK-35441","OBJECT_ID":"2025-223R","EPOCH":"2026-03-09T21:27:37.342080","MEAN_MOTION":15.30195204,"ECCENTRICITY":0.00012387,"INCLINATION":53.159,"RA_OF_ASC_NODE":293.4604,"ARG_OF_PERICENTER":71.0703,"MEAN_ANOMALY":289.0432,"EPHEMERIS_TYPE":0,"CLASSIFICATION_TYPE":"U","NORAD_CAT_ID":65869,"ELEMENT_SET_NO":999,"REV_AT_EPOCH":2423,"BSTAR":0.00077016075,"MEAN_MOTION_DOT":0.00022517,"MEAN_MOTION_DDOT":0},{"OBJECT_NAME":"ELECTRON KICK STAGE R\/B","OBJECT_ID":"2025-061J","EPOCH":"2026-03-09T21:50:35.145600","MEAN_MOTION":15.31602074,"ECCENTRICITY":0.00402669,"INCLINATION":97.5479,"RA_OF_ASC_NODE":52.3854,"ARG_OF_PERICENTER":150.2628,"MEAN_ANOMALY":210.0914,"EPHEMERIS_TYPE":0,"CLASSIFICATION_TYPE":"U","NORAD_CAT_ID":63359,"ELEMENT_SET_NO":999,"REV_AT_EPOCH":5306,"BSTAR":0.0006963674,"MEAN_MOTION_DOT":0.00021749,"MEAN_MOTION_DDOT":0}]
